NORAD_CAT_ID,OBJECT_NAME,OBJECT_TYPE,EPOCH,MEAN_MOTION,ECCENTRICITY,INCLINATION,RA_OF_ASC_NODE,ARG_OF_PERICENTER,MEAN_ANOMALY,BSTAR,MEAN_MOTION_DOT,MEAN_MOTION_DDOT,TLE_LINE0,TLE_LINE1,TLE_LINE2,SEMIMAJOR_AXIS,PERIOD,APOGEE,PERIGEE,DECAYED
53246.0,STARLINK-4131,PAYLOAD,2023-02-26 16:38:45,15.08887429,0.0001383,53.2167,133.6159,95.6333,264.4817,0.0015942,0.00025208,0.0,0 STARLINK-4131,1 53246U 22086E   23057.69357644  .00025208  00000-0  15942-2 0  9999,2 53246  53.2167 133.6159 0001383  95.6333 264.4817 15.08887429 33626,6917.735,95.435,540.557,538.644,0.0
53246.0,STARLINK-4131,PAYLOAD,2023-02-27 16:29:32,15.08889897,0.00017,53.2165,129.1539,134.7379,225.3751,0.0051219,0.00082293,0.0,0 STARLINK-4131,1 53246U 22086E   23058.68718686  .00082293  00000-0  51219-2 0  9990,2 53246  53.2165 129.1539 0001700 134.7379 225.3751 15.08889897 33774,6917.728,95.434,540.769,538.417,0.0
53246.0,STARLINK-4131,PAYLOAD,2023-02-27 21:15:42,15.08842526,0.0001227,53.2181,128.2625,104.5228,255.5901,0.0015613,0.00024649,0.0,0 STARLINK-4131,1 53246U 22086E   23058.88591059  .00024649  00000-0  15613-2 0  9994,2 53246  53.2181 128.2625 0001227 104.5228 255.5901 15.08842526 33196,6917.873,95.437,540.586,538.889,0.0
53246.0,STARLINK-4131,PAYLOAD,2023-02-28 09:58:47,15.08881683,9.85e-05,53.2165,125.8863,98.9892,261.1212,0.0020559,0.00032621,0.0,0 STARLINK-4131,1 53246U 22086E   23059.41582177  .00032621  00000-0  20559-2 0  9999,2 53246  53.2165 125.8863 0000985  98.9892 261.1212 15.08881683 33272,6917.753,95.435,540.299,538.937,0.0
53246.0,STARLINK-4131,PAYLOAD,2023-02-28 21:06:28,15.08847702,0.0001803,53.2163,123.8059,80.0655,280.054,-0.00039127,-6.511e-05,0.0,0 STARLINK-4131,1 53246U 22086E   23059.87949975 -.00006511  00000-0 -39127-3 0  9995,2 53246  53.2163 123.8059 0001803  80.0655 280.0540 15.08847702 33340,6917.857,95.437,540.969,538.475,0.0
53246.0,STARLINK-4131,PAYLOAD,2023-03-01 11:24:58,15.08795007,0.0001456,53.2159,121.1292,79.1825,280.9331,0.0010168,0.00015912,0.0,0 STARLINK-4131,1 53246U 22086E   23060.47568196  .00015912  00000-0  10168-2 0  9991,2 53246  53.2159 121.1292 0001456  79.1825 280.9331 15.08795007 34042,6918.018,95.44,540.89,538.876,0.0
53246.0,STARLINK-4131,PAYLOAD,2023-03-01 20:57:18,15.08813062,0.0001482,53.2156,119.3447,81.2389,278.8771,0.0017108,0.00027024,0.0,0 STARLINK-4131,1 53246U 22086E   23060.87313128  .00027024  00000-0  17108-2 0  9996,2 53246  53.2156 119.3447 0001482  81.2389 278.8771 15.08813062 33492,6917.963,95.439,540.853,538.802,0.0
53246.0,STARLINK-4131,PAYLOAD,2023-03-02 12:51:09,15.08857064,0.0001485,53.2156,116.3713,80.9002,279.2158,0.0020358,0.00032276,0.0,0 STARLINK-4131,1 53246U 22086E   23061.53553221  .00032276  00000-0  20358-2 0  9996,2 53246  53.2156 116.3713 0001485  80.9002 279.2158 15.08857064 34200,6917.828,95.436,540.721,538.666,0.0
53246.0,STARLINK-4131,PAYLOAD,2023-03-03 07:55:47,15.0887204,0.0001488,53.2152,112.8029,75.1941,284.9216,0.0019801,0.00031394,0.0,0 STARLINK-4131,1 53246U 22086E   23062.33040773  .00031394  00000-0  19801-2 0  9999,2 53246  53.2152 112.8029 0001488  75.1941 284.9216 15.08872040 34320,6917.782,95.436,540.677,538.618,0.0
53246.0,STARLINK-4131,PAYLOAD,2023-03-03 09:31:10,15.08876046,0.0001292,53.2157,112.5043,90.6947,269.4193,0.0020541,0.00032587,0.0,0 STARLINK-4131,1 53246U 22086E   23062.39664554  .00032587  00000-0  20541-2 0  9992,2 53246  53.2157 112.5043 0001292  90.6947 269.4193 15.08876046 33724,6917.77,95.435,540.529,538.741,0.0
53246.0,STARLINK-4131,PAYLOAD,2023-03-03 20:38:52,15.08861996,0.0001964,53.2155,110.4267,73.2018,286.9189,0.0011086,0.0001741,0.0,0 STARLINK-4131,1 53246U 22086E   23062.86032479  .00017410  00000-0  11086-2 0  9991,2 53246  53.2155 110.4267 0001964  73.2018 286.9189 15.08861996 33793,6917.813,95.436,541.037,538.319,0.0
53246.0,STARLINK-4131,PAYLOAD,2023-03-04 09:21:56,15.08859107,0.0001838,53.2165,108.0466,82.7679,277.3522,0.00035344,5.344e-05,0.0,0 STARLINK-4131,1 53246U 22086E   23063.39023918  .00005344  00000-0  35344-3 0  9995,2 53246  53.2165 108.0466 0001838  82.7679 277.3522 15.08859107 34489,6917.822,95.436,540.958,538.415,0.0
53246.0,STARLINK-4131,PAYLOAD,2023-03-04 20:29:38,15.08843204,0.0001451,53.2161,105.9654,85.7295,274.3863,-0.00024082,-4.119e-05,0.0,0 STARLINK-4131,1 53246U 22086E   23063.85391638 -.00004119  00000-0 -24082-3 0  9991,2 53246  53.2161 105.9654 0001451  85.7295 274.3863 15.08843204 34552,6917.871,95.437,540.739,538.732,0.0
53246.0,STARLINK-4131,PAYLOAD,2023-03-05 12:23:29,15.08846631,0.0001803,53.2152,102.9884,102.8547,257.2647,7.7248e-05,9.42e-06,0.0,0 STARLINK-4131,1 53246U 22086E   23064.51631634  .00000942  00000-0  77248-4 0  9999,2 53246  53.2152 102.9884 0001803 102.8547 257.2647 15.08846631 34047,6917.86,95.437,540.972,538.478,0.0
53246.0,STARLINK-4131,PAYLOAD,2023-03-06 05:52:44,15.08850955,0.0001742,53.2154,99.716,110.3566,249.7614,0.00032681,4.919e-05,0.0,0 STARLINK-4131,1 53246U 22086E   23065.24495453  .00004919  00000-0  32681-3 0  9996,2 53246  53.2154  99.7160 0001742 110.3566 249.7614 15.08850955 34769,6917.847,95.437,540.917,538.507,0.0
53246.0,STARLINK-4131,PAYLOAD,2023-03-06 18:35:49,15.08830107,9.46e-05,53.2172,97.3415,134.673,225.4339,-0.00058786,-9.629e-05,0.0,0 STARLINK-4131,1 53246U 22086E   23065.77487534 -.00009629  00000-0 -58786-3 0  9994,2 53246  53.2172  97.3415 0000946 134.6730 225.4339 15.08830107 34844,6917.911,95.438,540.43,539.121,0.0
53246.0,STARLINK-4131,PAYLOAD,2023-03-07 10:29:40,15.08857788,0.0001182,53.2163,94.3665,104.6025,255.5099,0.0025646,0.00040784,0.0,0 STARLINK-4131,1 53246U 22086E   23066.43727880  .00040784  00000-0  25646-2 0  9992,2 53246  53.2163  94.3665 0001182 104.6025 255.5099 15.08857788 34947,6917.826,95.436,540.509,538.873,0.0
53246.0,STARLINK-4131,PAYLOAD,2023-03-07 18:26:36,15.08851228,0.0001283,53.2157,92.8782,74.1051,286.0082,0.0013989,0.00022052,0.0,0 STARLINK-4131,1 53246U 22086E   23066.76848115  .00022052  00000-0  13989-2 0  9998,2 53246  53.2157  92.8782 0001283  74.1051 286.0082 15.08851228 34994,6917.846,95.437,540.599,538.824,0.0
53246.0,STARLINK-4131,PAYLOAD,2023-03-08 11:55:51,15.08859177,0.0001147,53.2159,89.6083,80.3793,279.7329,0.0010893,0.000171,0.0,0 STARLINK-4131,1 53246U 22086E   23067.49712065  .00017100  00000-0  10893-2 0  9992,2 53246  53.2159  89.6083 0001147  80.3793 279.7329 15.08859177 35103,6917.822,95.436,540.48,538.893,0.0
53246.0,STARLINK-4131,PAYLOAD,2023-03-09 05:25:05,15.08865987,0.0001003,53.2155,86.3372,124.2209,235.8878,0.0014111,0.00022257,0.0,0 STARLINK-4131,1 53246U 22086E   23068.22575985  .00022257  00000-0  14111-2 0  9998,2 53246  53.2155  86.3372 0001003 124.2209 235.8878 15.08865987 35215,6917.801,95.436,540.36,538.972,0.0
53246.0,STARLINK-4131,PAYLOAD,2023-03-09 18:08:10,15.08865159,0.0001468,53.2153,83.9572,84.6861,275.4299,0.001426,0.00022495,0.0,0 STARLINK-4131,1 53246U 22086E   23068.75568042  .00022495  00000-0  14260-2 0  9991,2 53246  53.2153  83.9572 0001468  84.6861 275.4299 15.08865159 35292,6917.803,95.436,540.684,538.653,0.0
53246.0,STARLINK-4131,PAYLOAD,2023-03-10 05:15:52,15.08860223,0.0001385,53.2164,81.8764,89.3139,270.8012,0.0015654,0.00024727,0.0,0 STARLINK-4131,1 53246U 22086E   23069.21935869  .00024727  00000-0  15654-2 0  9996,2 53246  53.2164  81.8764 0001385  89.3139 270.8012 15.08860223 35369,6917.819,95.436,540.642,538.725,0.0
53246.0,STARLINK-4131,PAYLOAD,2023-03-10 17:58:57,15.08845562,0.0001165,53.2169,79.4968,101.6419,258.4704,0.00049405,7.585e-05,0.0,0 STARLINK-4131,1 53246U 22086E   23069.74927790  .00007585  00000-0  49405-3 0  9993,2 53246  53.2169  79.4968 0001165 101.6419 258.4704 15.08845562 35446,6917.863,95.437,540.534,538.922,0.0
53246.0,STARLINK-4131,PAYLOAD,2023-03-11 06:42:03,15.08845098,0.0002534,53.2161,77.1191,91.2033,268.925,0.0011551,0.00018146,0.0,0 STARLINK-4131,1 53246U 22086E   23070.27920456  .00018146  00000-0  11551-2 0  9990,2 53246  53.2161  77.1191 0002534  91.2033 268.9250 15.08845098 35523,6917.865,95.437,541.483,537.977,0.0
53246.0,STARLINK-4131,PAYLOAD,2023-03-11 09:52:49,15.08848037,0.0001477,53.216,76.5223,107.3159,252.7995,0.00089924,0.00014056,0.0,0 STARLINK-4131,1 53246U 22086E   23070.41168257  .00014056  00000-0  89924-3 0  9995,2 53246  53.2160  76.5223 0001477 107.3159 252.7995 15.08848037 34931,6917.856,95.437,540.743,538.699,0.0
53246.0,STARLINK-4131,PAYLOAD,2023-03-12 00:11:18,15.08840597,0.0001228,53.2165,73.8472,110.6211,249.4913,0.0012745,0.00020054,0.0,0 STARLINK-4131,1 53246U 22086E   23071.00785050  .00020054  00000-0  12745-2 0  9998,2 53246  53.2165  73.8472 0001228 110.6211 249.4913 15.08840597 35636,6917.879,95.438,540.593,538.894,0.0
53246.0,STARLINK-4131,PAYLOAD,2023-03-12 11:19:00,15.08857928,0.0001417,53.2173,71.7645,99.2671,260.8481,0.001625,0.00025681,0.0,0 STARLINK-4131,1 53246U 22086E   23071.47152974  .00025681  00000-0  16250-2 0  9998,2 53246  53.2173  71.7645 0001417  99.2671 260.8481 15.08857928 35099,6917.826,95.436,540.671,538.71,0.0
53246.0,STARLINK-4131,PAYLOAD,2023-03-13 00:02:05,15.0885606,0.0001626,53.2172,69.3854,110.116,250.0007,0.0013031,0.00020521,0.0,0 STARLINK-4131,1 53246U 22086E   23072.00144935  .00020521  00000-0  13031-2 0  9998,2 53246  53.2172  69.3854 0001626 110.1160 250.0007 15.08856060 35788,6917.831,95.437,540.821,538.571,0.0
53246.0,STARLINK-4131,PAYLOAD,2023-03-13 11:09:46,15.08871393,0.0001565,53.2177,67.304,97.3381,262.7789,0.0013775,0.00021722,0.0,0 STARLINK-4131,1 53246U 22086E   23072.46512289  .00021722  00000-0  13775-2 0  9998,2 53246  53.2177  67.3040 0001565  97.3381 262.7789 15.08871393 35245,6917.784,95.436,540.732,538.567,0.0
53246.0,STARLINK-4131,PAYLOAD,2023-03-14 04:39:01,15.08831264,0.0001823,53.2181,64.0304,121.7283,238.3887,0.00087244,0.00013621,0.0,0 STARLINK-4131,1 53246U 22086E   23073.19376930  .00013621  00000-0  87244-3 0  9992,2 53246  53.2181  64.0304 0001823 121.7283 238.3887 15.08831264 35967,6917.907,95.438,541.033,538.511,0.0
